{
    "CCSDS_OMM_VERS": "3.0",
    "COMMENT": "GENERATED VIA SPACE-TRACK.ORG API",
    "CREATION_DATE": "2025-11-22T18:56:57",
    "ORIGINATOR": "18 SPCS",
    "OBJECT_NAME": "GALILEO 23 (2C9)",
    "OBJECT_ID": "2018-060C",
    "CENTER_NAME": "EARTH",
    "REF_FRAME": "TEME",
    "TIME_SYSTEM": "UTC",
    "MEAN_ELEMENT_THEORY": "SGP4",
    "EPOCH": "2025-11-21T06:25:24.991104",
    "MEAN_MOTION": "1.70476010",
    "ECCENTRICITY": "0.00055461",
    "INCLINATION": "57.2351",
    "RA_OF_ASC_NODE": "347.4028",
    "ARG_OF_PERICENTER": "280.8027",
    "MEAN_ANOMALY": "79.1842",
    "EPHEMERIS_TYPE": "0",
    "CLASSIFICATION_TYPE": "U",
    "NORAD_CAT_ID": "43566",
    "ELEMENT_SET_NO": "999",
    "REV_AT_EPOCH": "4564",
    "BSTAR": "0.00000000000000",
    "MEAN_MOTION_DOT": "-0.00000071",
    "MEAN_MOTION_DDOT": "0.0000000000000",
    "SEMIMAJOR_AXIS": "29600.087",
    "PERIOD": "844.694",
    "APOAPSIS": "23238.369",
    "PERIAPSIS": "23205.536",
    "OBJECT_TYPE": "PAYLOAD",
    "RCS_SIZE": "LARGE",
    "COUNTRY_CODE": "ESA",
    "LAUNCH_DATE": "2018-07-25",
    "SITE": "FRGUI",
    "DECAY_DATE": null,
    "FILE": "4894246",
    "GP_ID": "303254096",
    "TLE_LINE0": "0 GALILEO 23 (2C9)",
    "TLE_LINE1": "1 43566U 18060C   25325.26765036 -.00000071  00000-0  00000-0 0  9990",
    "TLE_LINE2": "2 43566  57.2351 347.4028 0005546 280.8027  79.1842  1.70476010 45640"
}